[{"CCSDS_OMM_VERS":"3.0","COMMENT":"GENERATED VIA SPACE-TRACK.ORG API","CREATION_DATE":"2026-03-28T09:06:36","ORIGINATOR":"18 SPCS","OBJECT_NAME":"FENGYUN 1C DEB","OBJECT_ID":"1999-025BJM","CENTER_NAME":"EARTH","REF_FRAME":"TEME","TIME_SYSTEM":"UTC","MEAN_ELEMENT_THEORY":"SGP4","EPOCH":"2026-03-27T22:06:20.640672","MEAN_MOTION":"14.51671366","ECCENTRICITY":"0.00464430","INCLINATION":"99.0457","RA_OF_ASC_NODE":"83.4733","ARG_OF_PERICENTER":"150.9825","MEAN_ANOMALY":"272.8816","EPHEMERIS_TYPE":"0","CLASSIFICATION_TYPE":"U","NORAD_CAT_ID":"31183","ELEMENT_SET_NO":"999","REV_AT_EPOCH":"99008","BSTAR":"0.00092009000000","MEAN_MOTION_DOT":"0.00003691","MEAN_MOTION_DDOT":"0.0000000000000","SEMIMAJOR_AXIS":"7098.332","PERIOD":"99.196","APOAPSIS":"753.164","PERIAPSIS":"687.230","OBJECT_TYPE":"DEBRIS","RCS_SIZE":"SMALL","COUNTRY_CODE":"PRC","LAUNCH_DATE":"1999-05-10","SITE":"TSC","DECAY_DATE":null,"FILE":"5103404","GP_ID":"317383968","TLE_LINE0":"0 FENGYUN 1C DEB","TLE_LINE1":"1 31183U 99025BJM 26086.92107223  .00003691  00000-0  92009-3 0  9991","TLE_LINE2":"2 31183  99.0457  83.4733 0046443 150.9825 272.8816 14.51671366990081"},{"CCSDS_OMM_VERS":"3.0","COMMENT":"GENERATED VIA SPACE-TRACK.ORG API","CREATION_DATE":"2007-05-07T10:03:24","ORIGINATOR":"18 SPCS","OBJECT_NAME":"FENGYUN 1C DEB","OBJECT_ID":"1999-025BJN","CENTER_NAME":"EARTH","REF_FRAME":"TEME","TIME_SYSTEM":"UTC","MEAN_ELEMENT_THEORY":"SGP4","EPOCH":"2007-05-06T23:31:00.743807","MEAN_MOTION":"16.20646861","ECCENTRICITY":"0.00890110","INCLINATION":"98.0177","RA_OF_ASC_NODE":"127.6888","ARG_OF_PERICENTER":"284.6307","MEAN_ANOMALY":"80.4969","EPHEMERIS_TYPE":"0","CLASSIFICATION_TYPE":"U","NORAD_CAT_ID":"31184","ELEMENT_SET_NO":"999","REV_AT_EPOCH":"1104","BSTAR":"0.00326440000000","MEAN_MOTION_DOT":"0.15678546","MEAN_MOTION_DDOT":"0.0000031091000","SEMIMAJOR_AXIS":"6595.937","PERIOD":"88.853","APOAPSIS":"276.513","PERIAPSIS":"159.091","OBJECT_TYPE":"DEBRIS","RCS_SIZE":"SMALL","COUNTRY_CODE":"PRC","LAUNCH_DATE":"1999-05-10","SITE":"TSC","DECAY_DATE":"2007-05-07","FILE":"397911","GP_ID":"61489429","TLE_LINE0":"0 FENGYUN 1C DEB","TLE_LINE1":"1 31184U 99025BJN 07126.97986972  .15678546  31091-5  32644-2 0  9997","TLE_LINE2":"2 31184 098.0177 127.6888 0089011 284.6307 080.4969 16.20646861 11042"},{"CCSDS_OMM_VERS":"3.0","COMMENT":"GENERATED VIA SPACE-TRACK.ORG API","CREATION_DATE":"2026-03-26T05:16:44","ORIGINATOR":"18 SPCS","OBJECT_NAME":"FENGYUN 1C DEB","OBJECT_ID":"1999-025BJP","CENTER_NAME":"EARTH","REF_FRAME":"TEME","TIME_SYSTEM":"UTC","MEAN_ELEMENT_THEORY":"SGP4","EPOCH":"2026-03-25T17:46:35.957280","MEAN_MOTION":"14.03088620","ECCENTRICITY":"0.00404813","INCLINATION":"98.8413","RA_OF_ASC_NODE":"83.2103","ARG_OF_PERICENTER":"177.5581","MEAN_ANOMALY":"182.5791","EPHEMERIS_TYPE":"0","CLASSIFICATION_TYPE":"U","NORAD_CAT_ID":"31185","ELEMENT_SET_NO":"999","REV_AT_EPOCH":"63781","BSTAR":"-0.00003308549900","MEAN_MOTION_DOT":"-0.00000095","MEAN_MOTION_DDOT":"0.0000000000000","SEMIMAJOR_AXIS":"7261.256","PERIOD":"102.631","APOAPSIS":"912.516","PERIAPSIS":"853.727","OBJECT_TYPE":"DEBRIS","RCS_SIZE":"SMALL","COUNTRY_CODE":"PRC","LAUNCH_DATE":"1999-05-10","SITE":"TSC","DECAY_DATE":null,"FILE":"5097668","GP_ID":"317060272","TLE_LINE0":"0 FENGYUN 1C DEB","TLE_LINE1":"1 31185U 99025BJP 26084.74069395 -.00000095  00000-0 -33085-4 0  9995","TLE_LINE2":"2 31185  98.8413  83.2103 0040481 177.5581 182.5791 14.03088620637811"},{"CCSDS_OMM_VERS":"3.0","COMMENT":"GENERATED VIA SPACE-TRACK.ORG API","CREATION_DATE":"2026-03-25T17:29:05","ORIGINATOR":"18 SPCS","OBJECT_NAME":"FENGYUN 1C DEB","OBJECT_ID":"1999-025BJQ","CENTER_NAME":"EARTH","REF_FRAME":"TEME","TIME_SYSTEM":"UTC","MEAN_ELEMENT_THEORY":"SGP4","EPOCH":"2026-03-25T01:16:37.015680","MEAN_MOTION":"14.13103725","ECCENTRICITY":"0.00260766","INCLINATION":"99.1801","RA_OF_ASC_NODE":"6.9760","ARG_OF_PERICENTER":"133.4499","MEAN_ANOMALY":"243.1448","EPHEMERIS_TYPE":"0","CLASSIFICATION_TYPE":"U","NORAD_CAT_ID":"31186","ELEMENT_SET_NO":"999","REV_AT_EPOCH":"97550","BSTAR":"0.00040177923000","MEAN_MOTION_DOT":"0.00000706","MEAN_MOTION_DDOT":"0.0000000000000","SEMIMAJOR_AXIS":"7226.907","PERIOD":"101.903","APOAPSIS":"867.618","PERIAPSIS":"829.927","OBJECT_TYPE":"DEBRIS","RCS_SIZE":"SMALL","COUNTRY_CODE":"PRC","LAUNCH_DATE":"1999-05-10","SITE":"TSC","DECAY_DATE":null,"FILE":"5096884","GP_ID":"317009489","TLE_LINE0":"0 FENGYUN 1C DEB","TLE_LINE1":"1 31186U 99025BJQ 26084.05320620  .00000706  00000-0  40178-3 0  9998","TLE_LINE2":"2 31186  99.1801   6.9760 0026077 133.4499 243.1448 14.13103725975501"},{"CCSDS_OMM_VERS":"3.0","COMMENT":"GENERATED VIA SPACE-TRACK.ORG API","CREATION_DATE":"2026-03-28T11:26:42","ORIGINATOR":"18 SPCS","OBJECT_NAME":"FENGYUN 1C DEB","OBJECT_ID":"1999-025BJR","CENTER_NAME":"EARTH","REF_FRAME":"TEME","TIME_SYSTEM":"UTC","MEAN_ELEMENT_THEORY":"SGP4","EPOCH":"2026-03-28T02:51:47.207232","MEAN_MOTION":"14.63492155","ECCENTRICITY":"0.02081476","INCLINATION":"99.2325","RA_OF_ASC_NODE":"327.9015","ARG_OF_PERICENTER":"264.0590","MEAN_ANOMALY":"93.6852","EPHEMERIS_TYPE":"0","CLASSIFICATION_TYPE":"U","NORAD_CAT_ID":"31187","ELEMENT_SET_NO":"999","REV_AT_EPOCH":"70639","BSTAR":"0.00211220300000","MEAN_MOTION_DOT":"0.00014960","MEAN_MOTION_DDOT":"0.0000000000000","SEMIMAJOR_AXIS":"7060.058","PERIOD":"98.395","APOAPSIS":"828.876","PERIAPSIS":"534.969","OBJECT_TYPE":"DEBRIS","RCS_SIZE":"SMALL","COUNTRY_CODE":"PRC","LAUNCH_DATE":"1999-05-10","SITE":"TSC","DECAY_DATE":null,"FILE":"5103506","GP_ID":"317395725","TLE_LINE0":"0 FENGYUN 1C DEB","TLE_LINE1":"1 31187U 99025BJR 26087.11929638  .00014960  00000-0  21122-2 0  9997","TLE_LINE2":"2 31187  99.2325 327.9015 0208148 264.0590  93.6852 14.63492155706396"},{"CCSDS_OMM_VERS":"3.0","COMMENT":"GENERATED VIA SPACE-TRACK.ORG API","CREATION_DATE":"2026-03-27T10:51:03","ORIGINATOR":"18 SPCS","OBJECT_NAME":"FENGYUN 1C DEB","OBJECT_ID":"1999-025BJS","CENTER_NAME":"EARTH","REF_FRAME":"TEME","TIME_SYSTEM":"UTC","MEAN_ELEMENT_THEORY":"SGP4","EPOCH":"2026-03-27T03:05:21.114240","MEAN_MOTION":"14.24577431","ECCENTRICITY":"0.00568994","INCLINATION":"98.7359","RA_OF_ASC_NODE":"158.3920","ARG_OF_PERICENTER":"307.6084","MEAN_ANOMALY":"112.4597","EPHEMERIS_TYPE":"0","CLASSIFICATION_TYPE":"U","NORAD_CAT_ID":"31188","ELEMENT_SET_NO":"999","REV_AT_EPOCH":"97822","BSTAR":"0.00117526810000","MEAN_MOTION_DOT":"0.00002731","MEAN_MOTION_DDOT":"0.0000000000000","SEMIMAJOR_AXIS":"7188.051","PERIOD":"101.083","APOAPSIS":"850.815","PERIAPSIS":"769.016","OBJECT_TYPE":"DEBRIS","RCS_SIZE":"SMALL","COUNTRY_CODE":"PRC","LAUNCH_DATE":"1999-05-10","SITE":"TSC","DECAY_DATE":null,"FILE":"5101052","GP_ID":"317237368","TLE_LINE0":"0 FENGYUN 1C DEB","TLE_LINE1":"1 31188U 99025BJS 26086.12871660  .00002731  00000-0  11753-2 0  9991","TLE_LINE2":"2 31188  98.7359 158.3920 0056899 307.6084 112.4597 14.24577431978222"},{"CCSDS_OMM_VERS":"3.0","COMMENT":"GENERATED VIA SPACE-TRACK.ORG API","CREATION_DATE":"2015-02-11T12:55:05","ORIGINATOR":"18 SPCS","OBJECT_NAME":"FENGYUN 1C DEB","OBJECT_ID":"1999-025BJT","CENTER_NAME":"EARTH","REF_FRAME":"TEME","TIME_SYSTEM":"UTC","MEAN_ELEMENT_THEORY":"SGP4","EPOCH":"2015-02-06T16:48:16.901568","MEAN_MOTION":"15.79818587","ECCENTRICITY":"0.00282330","INCLINATION":"99.0329","RA_OF_ASC_NODE":"298.5947","ARG_OF_PERICENTER":"152.7341","MEAN_ANOMALY":"207.5410","EPHEMERIS_TYPE":"0","CLASSIFICATION_TYPE":"U","NORAD_CAT_ID":"31189","ELEMENT_SET_NO":"999","REV_AT_EPOCH":"41430","BSTAR":"0.04538700000000","MEAN_MOTION_DOT":"0.10694990","MEAN_MOTION_DDOT":"0.0000000000000","SEMIMAJOR_AXIS":"6709.091","PERIOD":"91.149","APOAPSIS":"349.897","PERIAPSIS":"312.014","OBJECT_TYPE":"DEBRIS","RCS_SIZE":"SMALL","COUNTRY_CODE":"PRC","LAUNCH_DATE":"1999-05-10","SITE":"TSC","DECAY_DATE":"2015-02-09","FILE":"1824908","GP_ID":"98323966","TLE_LINE0":"0 FENGYUN 1C DEB","TLE_LINE1":"1 31189U 99025BJT 15037.70019562  .10694990  00000-0  45387-1 0  9999","TLE_LINE2":"2 31189 099.0329 298.5947 0028233 152.7341 207.5410 15.79818587414301"},{"CCSDS_OMM_VERS":"3.0","COMMENT":"GENERATED VIA SPACE-TRACK.ORG API","CREATION_DATE":"2026-03-28T04:18:04","ORIGINATOR":"18 SPCS","OBJECT_NAME":"FENGYUN 1C DEB","OBJECT_ID":"1999-025BJU","CENTER_NAME":"EARTH","REF_FRAME":"TEME","TIME_SYSTEM":"UTC","MEAN_ELEMENT_THEORY":"SGP4","EPOCH":"2026-03-27T18:03:51.212448","MEAN_MOTION":"14.03865304","ECCENTRICITY":"0.00667770","INCLINATION":"98.8165","RA_OF_ASC_NODE":"101.3304","ARG_OF_PERICENTER":"326.7814","MEAN_ANOMALY":"32.9169","EPHEMERIS_TYPE":"0","CLASSIFICATION_TYPE":"U","NORAD_CAT_ID":"31190","ELEMENT_SET_NO":"999","REV_AT_EPOCH":"97020","BSTAR":"0.00079382772000","MEAN_MOTION_DOT":"0.00001234","MEAN_MOTION_DDOT":"0.0000000000000","SEMIMAJOR_AXIS":"7258.578","PERIOD":"102.574","APOAPSIS":"928.914","PERIAPSIS":"831.972","OBJECT_TYPE":"DEBRIS","RCS_SIZE":"SMALL","COUNTRY_CODE":"PRC","LAUNCH_DATE":"1999-05-10","SITE":"TSC","DECAY_DATE":null,"FILE":"5102610","GP_ID":"317341279","TLE_LINE0":"0 FENGYUN 1C DEB","TLE_LINE1":"1 31190U 99025BJU 26086.75267607  .00001234  00000-0  79383-3 0  9994","TLE_LINE2":"2 31190  98.8165 101.3304 0066777 326.7814  32.9169 14.03865304970201"}]